YOTSUBA-KULOVER         
1 65941U 98067XN  26055.21384955  .00146862  00000+0  94234-3 0  9991
2 65941  51.6224 126.8957 0005830 355.4013   4.6931 15.75262971 21373
BOTAN                   
1 65942U 98067XP  26055.28850187  .00826763  33197-3  15426-2 0  9991
2 65942  51.6123 120.5374 0009759  12.7993 347.3263 16.00338792 21469
E-KAGAKU-1              
1 65943U 98067XQ  26055.21608696  .00144588  00000+0  93569-3 0  9997
2 65943  51.6245 126.9254 0006152   4.6501 355.4555 15.75072795 21374
HRC MONOBLOCK CAMERA    
1 66052U 98067XR  26055.45195169  .00043997  00000+0  52279-3 0  9996
2 66052  51.6276 132.2644 0002930  39.4892 320.6315 15.60703861 20323
HTV-X1                  
1 66174U 25241A   26055.21810240  .00011823  00000+0  22802-3 0  9995
2 66174  51.6318 138.9491 0008427 128.0072 232.1679 15.48257925   510
SZ-21 MODULE            
1 66515U 25246C   26054.99727478  .00032253  00000+0  29146-3 0  9991
2 66515  41.4750 287.5769 0001502 290.9828  69.0853 15.67414814 15925
SHENZHOU-22             
1 66645U 25272A   26055.08242906  .00019707  00000+0  23964-3 0  9994
2 66645  41.4668 290.9181 0005449 183.7722 176.3076 15.60067811267640
SOYUZ-MS 28             
1 66664U 25275A   26055.47628608  .00010887  00000+0  21063-3 0  9996
2 66664  51.6318 137.6731 0008377 128.8407 231.3330 15.48263422554283
DUPLEX                  
1 66906U 98067XS  26055.48204384  .00031856  00000+0  46667-3 0  9992
2 66906  51.6292 135.4660 0001748  74.7440 285.3744 15.55270446 13078
ISS OBJECT XT           
1 66907U 98067XT  26055.38238927  .00113727  00000+0  11135-2 0  9991
2 66907  51.6254 133.2936 0003853   5.2885 354.8150 15.65249808 13094
ISS OBJECT XU           
1 66908U 98067XU  26055.25366959  .00119816  00000+0  11696-2 0  9992
2 66908  51.6250 133.9315 0003914   8.4064 351.6996 15.65299119 13072
SILVERSAT               
1 66909U 98067XV  26055.46670471  .00139598  00000+0  12504-2 0  9991
2 66909  51.6253 132.3537 0004720   3.5215 356.5813 15.67358170 13117
